[{"OBJECT_NAME":"STARLINK-36152","OBJECT_ID":"2025-288K","EPOCH":"2026-03-08T21:32:42.262368","MEAN_MOTION":15.27599844,"ECCENTRICITY":0.00013432,"INCLINATION":42.9993,"RA_OF_ASC_NODE":28.1486,"ARG_OF_PERICENTER":248.4534,"MEAN_ANOMALY":111.6175,"EPHEMERIS_TYPE":0,"CLASSIFICATION_TYPE":"U","NORAD_CAT_ID":66968,"ELEMENT_SET_NO":999,"REV_AT_EPOCH":1516,"BSTAR":0.0017156292,"MEAN_MOTION_DOT":0.0004728,"MEAN_MOTION_DDOT":0},{"OBJECT_NAME":"OBJECT BE","OBJECT_ID":"2025-313BE","EPOCH":"2026-03-09T16:43:59.380320","MEAN_MOTION":15.29801687,"ECCENTRICITY":0.00072083,"INCLINATION":97.3989,"RA_OF_ASC_NODE":145.3568,"ARG_OF_PERICENTER":335.3714,"MEAN_ANOMALY":24.7181,"EPHEMERIS_TYPE":0,"CLASSIFICATION_TYPE":"U","NORAD_CAT_ID":67482,"ELEMENT_SET_NO":999,"REV_AT_EPOCH":797,"BSTAR":0.0026504328,"MEAN_MOTION_DOT":0.00077178,"MEAN_MOTION_DDOT":0}]
