STARLINK-36152          
1 66968U 25288K   26067.89771137  .00047280  00000+0  17156-2 0  9996
2 66968  42.9993  28.1486 0001343 248.4534 111.6175 15.27599844 15162
2025-313BE              
1 67482U 25313BE  26068.69721505  .00077178  00000+0  26504-2 0  9996
2 67482  97.3989 145.3568 0007208 335.3714  24.7181 15.29801687  7972
